#dP2023  1 24  0  0  0.00000000      96 __u+U IGS14 FIT  IAC
## 2246 172800.00000000   900.00000000 59968 0.0000000000000
+  119   C06C07C08C09C10C11C12C13C14C16C19C20C21C22C23C24C25
+        C26C27C28C29C30C32C33C34C35C36C37C38C39C40C41C42C43
+        C44C45C46E01E02E03E04E05E07E08E09E10E11E12E13E14E15
+        E18E19E21E24E25E26E27E30E31E33E34E36G01G02G03G04G05
+        G06G07G08G09G10G11G12G13G14G15G16G17G18G19G20G21G22
+        G23G24G25G26G27G29G30G31G32J02J03J04R01R02R03R04R05
+        R07R08R09R11R12R13R14R15R16R17R18R19R20R21R22R24R25
++         7  7  7  7  7  7  7  7  7  0  6  6  6  5  6  6  6
++         6  6  6  6  6  6  6  6  6  6  6  6  7  6  6  6  6
++         6  6  6  4  4  4  4  4  4  4  4  5  5  5  4  4  4
++         5  4  4  5  4  0  4  4  4  4  4  4  3  4  3  4  4
++         4  4  4  4  3  3  3  4  3  4  4  3  4  3  4  4  4
++         3  3  3  4  4  4  3  4  5  9  9 10  7  7  7  7  6
++         7  7  7  7  7  8  7  6  7  6  7  8  8  7  7  6  8
%c M  cc GPS ccc cccc cccc cccc cccc ccccc ccccc ccccc ccccc
%c cc cc ccc ccc cccc cccc cccc cccc ccccc ccccc ccccc ccccc
%f  1.2500000  1.025000000  0.00000000000  0.000000000000000
%f  0.0000000  0.000000000  0.00000000000  0.000000000000000
%i    0    0    0    0      0      0      0      0         0
%i    0    0    0    0      0      0      0      0         0
/* INFORMATION & ANALYSIS CENTER (IAC)            FINAL DATA
/* S/V CLOCKS ARE ALIGNED TO GNSS TIME                      
/* G:C1WC2W R:C1PC2P E:C1XC5X C:C2IC6I J:C1CC2S             
/* PCV:IGS20_2239 OL/AL:FES2004  NONE     YN ORB:CoN CLK:CoN
*  2023 01 24 15  0  0.00000000
PC06 -11318.449507  23114.550254 -33428.445725   -187.653049
PC07 -14204.904336  38956.160190   7165.540067    -30.524638
PC08   1995.053193  34564.935476  24201.365416    527.831936
PC09  -2123.364791  24241.582049 -34035.257538    393.159873
PC10  -8739.771374  39064.484302  12698.419018     25.794819
PC11 -27769.325817   2194.001034   1582.477187   -159.722896
PC12 -21734.307464  -8815.288361 -15075.349520    414.641142
PC13   5520.787217  36821.648383  20207.398490    191.120947
PC14 -18553.518762   8444.928706  19053.651558    402.827633
PC16      0.000000      0.000000      0.000000 999999.999999
PC19  17775.266024 -17673.083228 -12254.860448   -895.847671
PC20  16824.443755     41.195758 -22254.179956    753.915847
PC21  -5577.990508 -19138.511993  19552.025513   -914.670335
PC22   8575.284577 -26035.993542   5286.994827   -668.919235
PC23   -469.092585  21779.894188 -17450.313037   -872.860062
PC24 -20643.908701 -12643.283663 -13876.728979   -499.581045
PC25 -14271.679542   8007.214376 -22616.204448     60.673571
PC26 -15385.202832 -23220.212877   1298.649178    -68.896959
PC27  14126.249400  13138.456211  20141.681918     86.395261
PC28  -5870.782868  15823.591818  22230.560949     62.575082
PC29  23791.625628  -9896.399176 -10709.617185     71.759040
PC30  26778.670242   2489.979082   7394.974854      1.260893
PC32   5665.607003  19146.704447 -19476.529279   -640.946603
PC33 -17717.851701  17653.875858  12371.415180   -877.982548
PC34 -27158.949910  -1721.390191  -6248.618562     90.783446
PC35   6759.012840 -16006.165358 -21835.838251    692.209637
PC36  14890.331204  -6965.057262  22564.747141   -672.421103
PC37  13995.426556  24013.306835  -2659.146675   -838.696189
PC38  -5402.555304  30209.605955  29013.123266     54.115300
PC39 -19839.040128  21021.687960 -30741.213209     -1.546635
PC40 -21403.312606  35809.654542   5170.966719    -13.343146
PC41  -8926.738251  26024.161525  -4622.124761   -530.808631
PC42 -16423.171330  -1491.573695  22554.397326   -876.739646
PC43 -24306.141768   9446.879871   9965.207822      3.697357
PC44 -14448.959577 -12821.602712 -20160.855046    187.405155
PC45     69.067256 -21908.216226  17260.431059    -51.624665
PC46  20592.883743  11124.133335  15219.417503    -28.641778
PE01  -3030.255249 -29343.708606  -2348.123561   -597.959816
PE02   3276.470032  29306.474913   2709.252819     16.636137
PE03   -301.925420  19143.182257 -22578.443309   -643.128707
PE04 -18225.123607  -6817.075673  22311.253614    -43.177024
PE05 -19106.460293  20494.740262  -9551.534455   -102.069091
PE07  26468.076582  -9802.388226  -8920.358625    -17.639569
PE08  18077.042450   6761.115139 -22446.029463    -24.725153
PE09 -26408.295347   9746.586447   9140.908936   -811.488040
PE10 -27435.273424  -9317.892474   6050.181004   -507.392046
PE11 -25153.974933  -1372.618762  15552.535335    597.707220
PE12 -25190.218485 -15177.903873  -3446.692561   -396.203619
PE13  25501.965848   2061.446110 -14868.294167    429.727018
PE14  -5843.706870  16970.028936  15189.996729    122.521535
PE15  25056.281785  15286.129406   3812.804665    692.001816
PE18   8559.635090 -23278.170224 -20880.816761   -471.780740
PE19   3231.975333 -19974.886367  21605.428070  -3406.849539
PE21   8575.608939 -24425.693697  14336.813259   -508.126597
PE24 -16496.849237   4183.714845 -24239.105574  -1075.794655
PE25  -8759.692829  24226.496799 -14590.507655   -597.885602
PE26      0.000000      0.000000      0.000000 999999.999999
PE27  16296.724909  -5200.873965  24151.292597   -495.483566
PE30  14062.482794  17601.796953  19195.912376  -1186.339717
PE31 -14341.525725 -16861.717756 -19643.864754   -514.173846
PE33  -9845.200891 -19385.372520 -20081.774897   -453.553150
PE34  10036.682853  19386.892787  19993.001443    -26.495039
PE36 -11012.602726  12212.833547  24620.932137     -2.085720
PG01 -22321.033871 -14709.889669  -1343.018224    220.504713
PG02  23943.830617  11120.456869   -707.724706   -625.340927
PG03 -12399.055213 -14235.521858  18608.219468   -369.978623
PG04 -18814.766044  -4540.707628  18243.488107    -42.151264
PG05   5987.291015  24776.531632  -7412.217536   -113.223148
PG06  -9211.626202  11499.770618  22171.457049    563.326731
PG07 -23616.046819  -4632.786454 -11329.595051    253.385599
PG08  -8697.453605 -12548.681603 -21793.146765   -105.146646
PG09 -23842.720985   5775.820990  10162.780671   -230.817058
PG10  11318.802623 -17074.315040 -16556.988483    -21.755802
PG11   4130.008969  18356.560402  18771.154165    -86.438280
PG12  10868.455736  16403.855064  17609.706028   -331.960270
PG13    -72.153432  15849.317487 -21459.367258    464.745933
PG14 -13354.697174  14476.872234 -17755.543596    -42.697692
PG15  10668.330082  12033.843715 -21597.314839      7.405063
PG16  -1009.753642 -25835.829636  -5161.928083   -522.808281
PG17 -22769.751096  13483.049895   3251.015769    695.557996
PG18  22080.922643   1812.611115 -14751.535056   -112.074121
PG19 -16382.999451  16335.093448  12569.874251    268.410917
PG20    511.532243  26224.539741   4892.582417    455.042878
PG21 -19452.371702 -16161.628242  -8745.694387    153.643899
PG22  12603.920509 -17714.323571  15568.671501    412.671069
PG23  14605.360893  -5199.138580 -21544.974330      3.508456
PG24  21326.839621  15184.852797  -5997.753965    -44.003363
PG25  14779.431337   6431.434924  20845.663212    414.122677
PG26   5001.829412 -24427.814282   8528.068728    240.749303
PG27   3305.360805 -17493.721215 -19802.084231    119.151846
PG29  23373.730948  -1621.450331  12536.997668   -582.257838
PG30 -16869.557555   6536.811632 -19432.654703   -532.407413
PG31   8150.498106 -12923.316695  21556.750884   -207.252463
PG32  20417.975891 -16017.020910   5287.596120   -374.401360
PJ02 -21596.724867  28324.993723 -17929.843931     -0.668802
PJ03 -28503.550139  23971.226963  24798.600561     -0.012829
PJ04 -29659.283628  29247.320355  12570.173848    120.210186
PR01 -13665.588908   1644.598648  21475.904066     21.813940
PR02 -17392.971103  16821.223497   8227.675647    -23.311321
PR03 -10374.306907  21436.728917  -9178.324765     71.346369
PR04   1970.054417  13923.916492 -21257.124601    173.335844
PR05  13362.445761  -1008.626125 -21686.607700    106.673644
PR07   9783.636283 -21288.802108  10061.182896     48.591290
PR08  -2340.163180 -13817.389968  21363.118438    -69.152831
PR09   8641.761268  -8003.059976  22644.220372    100.323164
PR11 -11278.845799 -22830.283125  -1594.877017      3.192560
PR12 -14315.258992 -10626.108180 -18215.833844     24.545696
PR13  -9370.481185   6040.995064 -22964.038853    -31.275929
PR14   2106.773040  21184.625623 -14037.624159     24.280572
PR15  11498.791483  22606.781371   2738.681281     91.523630
PR16  14341.115320  10865.285905  18070.557738     10.386786
PR17  -4403.988074  10036.786508  23044.092490    598.652834
PR18  13367.873466  10319.665801  19115.106423     63.390185
PR19  23772.743139   6568.059469   6514.010618   -219.388197
PR20  21268.538161  -2868.952232 -13736.966729    -86.444040
PR21   2665.839085 -10209.592211 -23218.485254   -367.933509
PR22 -13799.339123 -11005.134541 -18393.108446     68.036725
PR24 -20813.776446   4127.375260  14171.646009    141.848567
PR25   5359.859141 -10020.638774 -22829.456686     52.479467
EOF
